[
    {
        "Altitude(m)": 571842.6991064665,
        "Argument of Periapsis(deg)": 0.013245982221427002,
        "Eccentricity": 0.0,
        "Inclination(deg)": 53.0,
        "Latitude(deg)": -53.14492762141483,
        "Longitude(deg)": -47.7581297522622,
        "Mean Anomaly(deg)": -90.72591426484482,
        "RAAN(deg)": 144.98028673705605,
        "Satellite Name": "Starlink Shell 1 653",
        "Satellite Number": 653,
        "Semi-Major Axis(m)": 6931778.249405717,
        "Time(s)": 380
    },
    {
        "Altitude(m)": 571844.838564399,
        "Argument of Periapsis(deg)": 0.013594560700938237,
        "Eccentricity": 0.0,
        "Inclination(deg)": 53.0,
        "Latitude(deg)": -53.15068933121464,
        "Longitude(deg)": -46.76078874680155,
        "Mean Anomaly(deg)": -90.09908306128811,
        "RAAN(deg)": 144.97976796697859,
        "Satellite Name": "Starlink Shell 1 653",
        "Satellite Number": 653,
        "Semi-Major Axis(m)": 6931778.249405717,
        "Time(s)": 390
    },
    {
        "Altitude(m)": 571843.4968978935,
        "Argument of Periapsis(deg)": 0.013943139180449475,
        "Eccentricity": 0.0,
        "Inclination(deg)": 53.0,
        "Latitude(deg)": -53.147396869695314,
        "Longitude(deg)": -45.76338840807456,
        "Mean Anomaly(deg)": -89.47225185773146,
        "RAAN(deg)": 144.9792491969011,
        "Satellite Name": "Starlink Shell 1 653",
        "Satellite Number": 653,
        "Semi-Major Axis(m)": 6931778.249405717,
        "Time(s)": 400
    },
    {
        "Altitude(m)": 571838.674621154,
        "Argument of Periapsis(deg)": 0.014291717659960712,
        "Eccentricity": 0.0,
        "Inclination(deg)": 53.0,
        "Latitude(deg)": -53.13505267962194,
        "Longitude(deg)": -44.76636442879399,
        "Mean Anomaly(deg)": -88.84542065417469,
        "RAAN(deg)": 144.97873042682363,
        "Satellite Name": "Starlink Shell 1 653",
        "Satellite Number": 653,
        "Semi-Major Axis(m)": 6931778.249405717,
        "Time(s)": 410
    },
    {
        "Altitude(m)": 571830.3736378644,
        "Argument of Periapsis(deg)": 0.014640296139471948,
        "Eccentricity": 0.0,
        "Inclination(deg)": 53.0,
        "Latitude(deg)": -53.113665913415275,
        "Longitude(deg)": -43.77015187966045,
        "Mean Anomaly(deg)": -88.21858945061796,
        "RAAN(deg)": 144.97821165674617,
        "Satellite Name": "Starlink Shell 1 653",
        "Satellite Number": 653,
        "Semi-Major Axis(m)": 6931778.249405717,
        "Time(s)": 420
    },
    {
        "Altitude(m)": 571818.5972403524,
        "Argument of Periapsis(deg)": 0.014988874618983185,
        "Eccentricity": 0.0,
        "Inclination(deg)": 53.0,
        "Latitude(deg)": -53.08325239963548,
        "Longitude(deg)": -42.775183408974975,
        "Mean Anomaly(deg)": -87.59175824706126,
        "RAAN(deg)": 144.97769288666868,
        "Satellite Name": "Starlink Shell 1 653",
        "Satellite Number": 653,
        "Semi-Major Axis(m)": 6931778.249405717,
        "Time(s)": 430
    },
    {
        "Altitude(m)": 571803.3501081838,
        "Argument of Periapsis(deg)": 0.015337453098494424,
        "Eccentricity": 0.0,
        "Inclination(deg)": 53.0,
        "Latitude(deg)": -53.04383458519616,
        "Longitude(deg)": -41.78188746001101,
        "Mean Anomaly(deg)": -86.96492704350456,
        "RAAN(deg)": 144.9771741165912,
        "Satellite Name": "Starlink Shell 1 653",
        "Satellite Number": 653,
        "Semi-Major Axis(m)": 6931778.249405717,
        "Time(s)": 440
    },
    {
        "Altitude(m)": 571784.6383061291,
        "Argument of Periapsis(deg)": 0.01568603157800566,
        "Eccentricity": 0.0,
        "Inclination(deg)": 53.0,
        "Latitude(deg)": -52.9954414538041,
        "Longitude(deg)": -40.7906880282583,
        "Mean Anomaly(deg)": -86.33809583994788,
        "RAAN(deg)": 144.97665534651375,
        "Satellite Name": "Starlink Shell 1 653",
        "Satellite Number": 653,
        "Semi-Major Axis(m)": 6931778.249405717,
        "Time(s)": 450
    },
    {
        "Altitude(m)": 571762.4692815626,
        "Argument of Periapsis(deg)": 0.0160346100575169,
        "Eccentricity": 0.0,
        "Inclination(deg)": 53.0,
        "Latitude(deg)": -52.93810842131286,
        "Longitude(deg)": -39.802002941654216,
        "Mean Anomaly(deg)": -85.71126463639109,
        "RAAN(deg)": 144.97613657643626,
        "Satellite Name": "Starlink Shell 1 653",
        "Satellite Number": 653,
        "Semi-Major Axis(m)": 6931778.249405717,
        "Time(s)": 460
    },
    {
        "Altitude(m)": 571736.8518612307,
        "Argument of Periapsis(deg)": 0.016383188537028134,
        "Eccentricity": 0.0,
        "Inclination(deg)": 53.0,
        "Latitude(deg)": -52.871877208872384,
        "Longitude(deg)": -38.816242185067026,
        "Mean Anomaly(deg)": -85.08443343283439,
        "RAAN(deg)": 144.9756178063588,
        "Satellite Name": "Starlink Shell 1 653",
        "Satellite Number": 653,
        "Semi-Major Axis(m)": 6931778.249405717,
        "Time(s)": 470
    },
    {
        "Altitude(m)": 571707.7962474389,
        "Argument of Periapsis(deg)": 0.01673176701653937,
        "Eccentricity": 0.0,
        "Inclination(deg)": 53.0,
        "Latitude(deg)": -52.79679569493096,
        "Longitude(deg)": -37.833807789705666,
        "Mean Anomaly(deg)": -84.45760222927768,
        "RAAN(deg)": 144.9750990362813,
        "Satellite Name": "Starlink Shell 1 653",
        "Satellite Number": 653,
        "Semi-Major Axis(m)": 6931778.249405717,
        "Time(s)": 480
    },
    {
        "Altitude(m)": 571675.3140136534,
        "Argument of Periapsis(deg)": 0.017080345496050607,
        "Eccentricity": 0.0,
        "Inclination(deg)": 53.0,
        "Latitude(deg)": -52.71291774730012,
        "Longitude(deg)": -36.85509226882388,
        "Mean Anomaly(deg)": -83.83077102572102,
        "RAAN(deg)": 144.97458026620384,
        "Satellite Name": "Starlink Shell 1 653",
        "Satellite Number": 653,
        "Semi-Major Axis(m)": 6931778.249405717,
        "Time(s)": 490
    },
    {
        "Altitude(m)": 571639.4180994885,
        "Argument of Periapsis(deg)": 0.017428923975561842,
        "Eccentricity": 0.0,
        "Inclination(deg)": 53.0,
        "Latitude(deg)": -52.620303036639726,
        "Longitude(deg)": -35.88047711895378,
        "Mean Anomaly(deg)": -83.20393982216426,
        "RAAN(deg)": 144.97406149612635,
        "Satellite Name": "Starlink Shell 1 653",
        "Satellite Number": 653,
        "Semi-Major Axis(m)": 6931778.249405717,
        "Time(s)": 500
    },
    {
        "Altitude(m)": 571600.1228051129,
        "Argument of Periapsis(deg)": 0.01777750245507308,
        "Eccentricity": 0.0,
        "Inclination(deg)": 53.0,
        "Latitude(deg)": -52.51901683284327,
        "Longitude(deg)": -34.910332905081944,
        "Mean Anomaly(deg)": -82.57710861860751,
        "RAAN(deg)": 144.97354272604892,
        "Satellite Name": "Starlink Shell 1 653",
        "Satellite Number": 653,
        "Semi-Major Axis(m)": 6931778.249405717,
        "Time(s)": 510
    },
    {
        "Altitude(m)": 571557.4437850768,
        "Argument of Periapsis(deg)": 0.018126080934584315,
        "Eccentricity": 0.0,
        "Inclination(deg)": 53.0,
        "Latitude(deg)": -52.40912978589907,
        "Longitude(deg)": -33.9450179086806,
        "Mean Anomaly(deg)": -81.95027741505085,
        "RAAN(deg)": 144.97302395597143,
        "Satellite Name": "Starlink Shell 1 653",
        "Satellite Number": 653,
        "Semi-Major Axis(m)": 6931778.249405717,
        "Time(s)": 520
    },
    {
        "Altitude(m)": 571511.3980415104,
        "Argument of Periapsis(deg)": 0.018474659414095554,
        "Eccentricity": 0.0,
        "Inclination(deg)": 53.0,
        "Latitude(deg)": -52.29071769287695,
        "Longitude(deg)": -32.98487685513227,
        "Mean Anomaly(deg)": -81.32344621149413,
        "RAAN(deg)": 144.97250518589397,
        "Satellite Name": "Starlink Shell 1 653",
        "Satellite Number": 653,
        "Semi-Major Axis(m)": 6931778.249405717,
        "Time(s)": 530
    },
    {
        "Altitude(m)": 571462.0039168219,
        "Argument of Periapsis(deg)": 0.018823237893606792,
        "Eccentricity": 0.0,
        "Inclination(deg)": 53.0,
        "Latitude(deg)": -52.163861252833925,
        "Longitude(deg)": -32.03024123686936,
        "Mean Anomaly(deg)": -80.69661500793744,
        "RAAN(deg)": 144.97198641581647,
        "Satellite Name": "Starlink Shell 1 653",
        "Satellite Number": 653,
        "Semi-Major Axis(m)": 6931778.249405717,
        "Time(s)": 540
    },
    {
        "Altitude(m)": 571409.2810856927,
        "Argument of Periapsis(deg)": 0.019171816373118027,
        "Eccentricity": 0.0,
        "Inclination(deg)": 53.0,
        "Latitude(deg)": -52.028645811220194,
        "Longitude(deg)": -31.081428206974262,
        "Mean Anomaly(deg)": -80.06978380438065,
        "RAAN(deg)": 144.971467645739,
        "Satellite Name": "Starlink Shell 1 653",
        "Satellite Number": 653,
        "Semi-Major Axis(m)": 6931778.249405717,
        "Time(s)": 550
    },
    {
        "Altitude(m)": 571353.2505466074,
        "Argument of Periapsis(deg)": 0.019520394852629266,
        "Eccentricity": 0.0,
        "Inclination(deg)": 53.0,
        "Latitude(deg)": -51.88516109577739,
        "Longitude(deg)": -30.138739559001323,
        "Mean Anomaly(deg)": -79.44295260082401,
        "RAAN(deg)": 144.97094887566152,
        "Satellite Name": "Starlink Shell 1 653",
        "Satellite Number": 653,
        "Semi-Major Axis(m)": 6931778.249405717,
        "Time(s)": 560
    }
]